start=new Date('2022-02-08T00:00:00.000Z').valueOf();
sats=[{"NORAD_CAT_ID":"48581","MEAN_MOTION_DOT":"0.00043509","EPOCH":"2022-02-07T14:00:01.000224","FILE":"3294379","ECCENTRICITY":"0.00017880","GP_ID":"195482605","ELEMENT_SET_NO":"999","DECAY_DATE":null,"MEAN_MOTION_DDOT":"0.0000000000000","INCLINATION":"53.0592","OBJECT_TYPE":"PAYLOAD","ARG_OF_PERICENTER":"66.0244","PERIOD":"95.594","MEAN_MOTION":"15.06369013","OBJECT_NAME":"STARLINK-2235","SITE":"AFETR","TLE_LINE2":"2 48581  53.0592 310.4403 0001788  66.0244  50.6050 15.06369013  3590","APOAPSIS":"548.547","MEAN_ELEMENT_THEORY":"SGP4","MEAN_ANOMALY":"50.6050","COUNTRY_CODE":"US","BSTAR":"0.00292430000000","OBJECT_ID":"2021-041AE","TLE_LINE1":"1 48581U 21041AE  22038.58334491  .00043509  00000-0  29243-2 0  9999","REV_AT_EPOCH":"359","LAUNCH_DATE":"2021-05-15","CLASSIFICATION_TYPE":"U","CENTER_NAME":"EARTH","SEMIMAJOR_AXIS":"6925.444","RA_OF_ASC_NODE":"310.4403","EPHEMERIS_TYPE":"0","PERIAPSIS":"546.070","RCS_SIZE":"LARGE","TIME_SYSTEM":"UTC","REF_FRAME":"TEME"},{"RA_OF_ASC_NODE":"308.9535","TIME_SYSTEM":"UTC","REF_FRAME":"TEME","EPHEMERIS_TYPE":"0","PERIAPSIS":"546.089","RCS_SIZE":"LARGE","MEAN_ANOMALY":"241.6541","COUNTRY_CODE":"US","BSTAR":"-0.00135760000000","OBJECT_ID":"2021-041AF","TLE_LINE1":"1 48582U 21041AF  22038.91667824 -.00020437  00000-0 -13576-2 0  9995","REV_AT_EPOCH":"4145","CLASSIFICATION_TYPE":"U","LAUNCH_DATE":"2021-05-15","CENTER_NAME":"EARTH","SEMIMAJOR_AXIS":"6925.395","ARG_OF_PERICENTER":"63.5559","PERIOD":"95.593","MEAN_MOTION":"15.06384721","MEAN_ELEMENT_THEORY":"SGP4","OBJECT_NAME":"STARLINK-2236","TLE_LINE2":"2 48582  53.0533 308.9535 0001691  63.5559 241.6541 15.06384721 41455","SITE":"AFETR","APOAPSIS":"548.431","ECCENTRICITY":"0.00016910","ELEMENT_SET_NO":"999","GP_ID":"195486884","NORAD_CAT_ID":"48582","MEAN_MOTION_DOT":"-0.00020437","EPOCH":"2022-02-07T22:00:00.999936","FILE":"3294496","OBJECT_TYPE":"PAYLOAD","DECAY_DATE":null,"MEAN_MOTION_DDOT":"0.0000000000000","INCLINATION":"53.0533"},{"MEAN_ANOMALY":"291.6232","TLE_LINE1":"1 48583U 21041AG  22038.28406769 -.00002513  00000-0 -14996-3 0  9998","COUNTRY_CODE":"US","OBJECT_ID":"2021-041AG","BSTAR":"-0.00014996000000","CLASSIFICATION_TYPE":"U","LAUNCH_DATE":"2021-05-15","CENTER_NAME":"EARTH","REV_AT_EPOCH":"4072","SEMIMAJOR_AXIS":"6925.403","RA_OF_ASC_NODE":"356.8114","TIME_SYSTEM":"UTC","REF_FRAME":"TEME","PERIAPSIS":"546.223","EPHEMERIS_TYPE":"0","RCS_SIZE":"LARGE","GP_ID":"195484473","ELEMENT_SET_NO":"999","ECCENTRICITY":"0.00015090","NORAD_CAT_ID":"48583","FILE":"3294399","EPOCH":"2022-02-07T06:49:03.448416","MEAN_MOTION_DOT":"-0.00002513","OBJECT_TYPE":"PAYLOAD","MEAN_MOTION_DDOT":"0.0000000000000","DECAY_DATE":null,"INCLINATION":"53.0543","ARG_OF_PERICENTER":"68.4917","MEAN_MOTION":"15.06382287","PERIOD":"95.593","MEAN_ELEMENT_THEORY":"SGP4","OBJECT_NAME":"STARLINK-2237","APOAPSIS":"548.313","SITE":"AFETR","TLE_LINE2":"2 48583  53.0543 356.8114 0001509  68.4917 291.6232 15.06382287 40728"},{"MEAN_ELEMENT_THEORY":"SGP4","OBJECT_NAME":"STARLINK-2238","SITE":"AFETR","TLE_LINE2":"2 48584  53.0558 355.4317 0001526  67.7997 292.3154 15.06386742 40714","APOAPSIS":"548.311","ARG_OF_PERICENTER":"67.7997","PERIOD":"95.593","MEAN_MOTION":"15.06386742","OBJECT_TYPE":"PAYLOAD","MEAN_MOTION_DDOT":"0.0000000000000","DECAY_DATE":null,"INCLINATION":"53.0558","ECCENTRICITY":"0.00015260","ELEMENT_SET_NO":"999","GP_ID":"195487628","NORAD_CAT_ID":"48584","MEAN_MOTION_DOT":"-0.00000744","FILE":"3294516","EPOCH":"2022-02-07T14:09:35.120448","TIME_SYSTEM":"UTC","REF_FRAME":"TEME","EPHEMERIS_TYPE":"0","PERIAPSIS":"546.197","RCS_SIZE":"LARGE","RA_OF_ASC_NODE":"355.4317","REV_AT_EPOCH":"4071","CLASSIFICATION_TYPE":"U","LAUNCH_DATE":"2021-05-15","CENTER_NAME":"EARTH","SEMIMAJOR_AXIS":"6925.389","MEAN_ANOMALY":"292.3154","OBJECT_ID":"2021-041AH","COUNTRY_CODE":"US","BSTAR":"-0.00003109800000","TLE_LINE1":"1 48584U 21041AH  22038.58998982 -.00000744  00000-0 -31098-4 0  9992"},{"OBJECT_NAME":"STARLINK-2240","SITE":"AFETR","TLE_LINE2":"2 48585  53.0570 355.0849 0001624  64.3390 295.7767 15.06380248 40727","APOAPSIS":"548.399","MEAN_ELEMENT_THEORY":"SGP4","ARG_OF_PERICENTER":"64.3390","PERIOD":"95.593","MEAN_MOTION":"15.06380248","DECAY_DATE":null,"MEAN_MOTION_DDOT":"0.0000000000000","INCLINATION":"53.0570","OBJECT_TYPE":"PAYLOAD","NORAD_CAT_ID":"48585","MEAN_MOTION_DOT":"0.00000574","EPOCH":"2022-02-07T16:01:03.942336","FILE":"3294516","ECCENTRICITY":"0.00016240","ELEMENT_SET_NO":"999","GP_ID":"195487623","EPHEMERIS_TYPE":"0","PERIAPSIS":"546.149","RCS_SIZE":"LARGE","TIME_SYSTEM":"UTC","REF_FRAME":"TEME","RA_OF_ASC_NODE":"355.0849","REV_AT_EPOCH":"4072","LAUNCH_DATE":"2021-05-15","CLASSIFICATION_TYPE":"U","CENTER_NAME":"EARTH","SEMIMAJOR_AXIS":"6925.409","MEAN_ANOMALY":"295.7767","OBJECT_ID":"2021-041AJ","COUNTRY_CODE":"US","BSTAR":"0.00005748500000","TLE_LINE1":"1 48585U 21041AJ  22038.66740674  .00000574  00000-0  57485-4 0  9992"},{"REV_AT_EPOCH":"4073","CENTER_NAME":"EARTH","LAUNCH_DATE":"2021-05-15","CLASSIFICATION_TYPE":"U","SEMIMAJOR_AXIS":"6925.407","MEAN_ANOMALY":"289.5493","BSTAR":"0.00000226070000","COUNTRY_CODE":"US","OBJECT_ID":"2021-041AK","TLE_LINE1":"1 48586U 21041AK  22038.72638269 -.00000248  00000-0  22607-5 0  9994","EPHEMERIS_TYPE":"0","PERIAPSIS":"546.294","RCS_SIZE":"LARGE","TIME_SYSTEM":"UTC","REF_FRAME":"TEME","RA_OF_ASC_NODE":"354.8162","MEAN_MOTION_DDOT":"0.0000000000000","DECAY_DATE":null,"INCLINATION":"53.0568","OBJECT_TYPE":"PAYLOAD","NORAD_CAT_ID":"48586","MEAN_MOTION_DOT":"-0.00000248","EPOCH":"2022-02-07T17:25:59.464416","FILE":"3294512","ECCENTRICITY":"0.00014130","GP_ID":"195487632","ELEMENT_SET_NO":"999","OBJECT_NAME":"STARLINK-2241","SITE":"AFETR","TLE_LINE2":"2 48586  53.0568 354.8162 0001413  70.5649 289.5493 15.06380901 40736","APOAPSIS":"548.251","MEAN_ELEMENT_THEORY":"SGP4","ARG_OF_PERICENTER":"70.5649","PERIOD":"95.593","MEAN_MOTION":"15.06380901"},{"RA_OF_ASC_NODE":"356.2695","TIME_SYSTEM":"UTC","REF_FRAME":"TEME","PERIAPSIS":"543.664","EPHEMERIS_TYPE":"0","RCS_SIZE":"LARGE","MEAN_ANOMALY":"288.7538","TLE_LINE1":"1 48587U 21041AL  22038.39972033  .00000880  00000-0  76377-4 0  9991","COUNTRY_CODE":"US","BSTAR":"0.00007637700000","OBJECT_ID":"2021-041AL","LAUNCH_DATE":"2021-05-15","CLASSIFICATION_TYPE":"U","CENTER_NAME":"EARTH","REV_AT_EPOCH":"4028","SEMIMAJOR_AXIS":"6922.812","ARG_OF_PERICENTER":"71.3610","MEAN_MOTION":"15.07228003","PERIOD":"95.540","MEAN_ELEMENT_THEORY":"SGP4","OBJECT_NAME":"STARLINK-2242","APOAPSIS":"545.690","SITE":"AFETR","TLE_LINE2":"2 48587  53.0549 356.2695 0001463  71.3610 288.7538 15.07228003 40281","GP_ID":"195481604","ELEMENT_SET_NO":"999","ECCENTRICITY":"0.00014630","NORAD_CAT_ID":"48587","FILE":"3294379","EPOCH":"2022-02-07T09:35:35.836512","MEAN_MOTION_DOT":"0.00000880","OBJECT_TYPE":"PAYLOAD","MEAN_MOTION_DDOT":"0.0000000000000","DECAY_DATE":null,"INCLINATION":"53.0549"},{"ARG_OF_PERICENTER":"77.0793","PERIOD":"95.593","MEAN_MOTION":"15.06382145","MEAN_ELEMENT_THEORY":"SGP4","OBJECT_NAME":"STARLINK-2244","SITE":"AFETR","TLE_LINE2":"2 48588  53.0556 347.2809 0001548  77.0793 283.0369 15.06382145 40395","APOAPSIS":"548.340","ECCENTRICITY":"0.00015480","ELEMENT_SET_NO":"999","GP_ID":"195482354","NORAD_CAT_ID":"48588","MEAN_MOTION_DOT":"-0.00004568","EPOCH":"2022-02-07T04:16:28.259904","FILE":"3294379","OBJECT_TYPE":"PAYLOAD","MEAN_MOTION_DDOT":"0.0000000000000","DECAY_DATE":null,"INCLINATION":"53.0556","RA_OF_ASC_NODE":"347.2809","TIME_SYSTEM":"UTC","REF_FRAME":"TEME","EPHEMERIS_TYPE":"0","PERIAPSIS":"546.196","RCS_SIZE":"LARGE","MEAN_ANOMALY":"283.0369","BSTAR":"-0.00028810000000","COUNTRY_CODE":"US","OBJECT_ID":"2021-041AM","TLE_LINE1":"1 48588U 21041AM  22038.17810486 -.00004568  00000-0 -28810-3 0  9998","REV_AT_EPOCH":"4039","CLASSIFICATION_TYPE":"U","LAUNCH_DATE":"2021-05-15","CENTER_NAME":"EARTH","SEMIMAJOR_AXIS":"6925.403"},{"ARG_OF_PERICENTER":"75.6797","MEAN_MOTION":"15.06386527","PERIOD":"95.593","MEAN_ELEMENT_THEORY":"SGP4","OBJECT_NAME":"STARLINK-2245","APOAPSIS":"548.398","SITE":"AFETR","TLE_LINE2":"2 48589  53.0562 345.5066 0001650  75.6797 284.4375 15.06386527 40908","GP_ID":"195487211","ELEMENT_SET_NO":"999","ECCENTRICITY":"0.00016500","NORAD_CAT_ID":"48589","EPOCH":"2022-02-07T13:44:23.077248","FILE":"3294512","MEAN_MOTION_DOT":"-0.00000317","OBJECT_TYPE":"PAYLOAD","DECAY_DATE":null,"MEAN_MOTION_DDOT":"0.0000000000000","INCLINATION":"53.0562","RA_OF_ASC_NODE":"345.5066","TIME_SYSTEM":"UTC","REF_FRAME":"TEME","PERIAPSIS":"546.112","EPHEMERIS_TYPE":"0","RCS_SIZE":"LARGE","MEAN_ANOMALY":"284.4375","TLE_LINE1":"1 48589U 21041AN  22038.57248932 -.00000317  00000-0 -23849-5 0  9991","BSTAR":"-0.00000238490000","COUNTRY_CODE":"US","OBJECT_ID":"2021-041AN","LAUNCH_DATE":"2021-05-15","CENTER_NAME":"EARTH","CLASSIFICATION_TYPE":"U","REV_AT_EPOCH":"4090","SEMIMAJOR_AXIS":"6925.390"},{"MEAN_ELEMENT_THEORY":"SGP4","TLE_LINE2":"2 48590  53.0568 354.7804 0002222  18.1763 341.9306 15.08996971 40634","SITE":"AFETR","APOAPSIS":"540.803","OBJECT_NAME":"STARLINK-2246","PERIOD":"95.428","MEAN_MOTION":"15.08996971","ARG_OF_PERICENTER":"18.1763","OBJECT_TYPE":"PAYLOAD","INCLINATION":"53.0568","DECAY_DATE":null,"MEAN_MOTION_DDOT":"0.0000000000000","ECCENTRICITY":"0.00022220","ELEMENT_SET_NO":"999","GP_ID":"195484786","MEAN_MOTION_DOT":"0.00298588","FILE":"3294398","EPOCH":"2022-02-07T17:26:08.807712","NORAD_CAT_ID":"48590","REF_FRAME":"TEME","TIME_SYSTEM":"UTC","RCS_SIZE":"LARGE","EPHEMERIS_TYPE":"0","PERIAPSIS":"537.729","RA_OF_ASC_NODE":"354.7804","SEMIMAJOR_AXIS":"6917.401","REV_AT_EPOCH":"4063","CLASSIFICATION_TYPE":"U","LAUNCH_DATE":"2021-05-15","CENTER_NAME":"EARTH","COUNTRY_CODE":"US","BSTAR":"0.01792400000000","OBJECT_ID":"2021-041AP","TLE_LINE1":"1 48590U 21041AP  22038.72649083  .00298588  00000-0  17924-1 0  9992","MEAN_ANOMALY":"341.9306"}];
